{
  "norad_id": 39079,
  "name": "AZERSPACE 1",
  "history": [
    {
      "epoch": "2026-03-28T21:53:38.711904Z",
      "apogee_km": 35791.80940270633,
      "perigee_km": 35781.21848568217,
      "latitude_deg": 0.019048840339953667,
      "longitude_deg": 45.98529780120177,
      "height_km": 35791.16340717632,
      "semi_major_axis_km": 42164.650944194254,
      "eccentricity": 0.00012559,
      "inclination_deg": 0.0165,
      "raan_deg": 107.7385,
      "arg_perigee_deg": 286.6319,
      "mean_anomaly_deg": 166.3253,
      "mean_motion_rev_day": 1.00272074
    },
    {
      "epoch": "2026-03-29T02:59:00.109248Z",
      "apogee_km": 35791.827618617266,
      "perigee_km": 35781.134671455686,
      "latitude_deg": 0.01737492585969344,
      "longitude_deg": 45.96943819994476,
      "height_km": 35788.47996421286,
      "semi_major_axis_km": 42164.618145036475,
      "eccentricity": 0.0001268,
      "inclination_deg": 0.0172,
      "raan_deg": 106.9489,
      "arg_perigee_deg": 288.5326,
      "mean_anomaly_deg": 241.7628,
      "mean_motion_rev_day": 1.00272191
    },
    {
      "epoch": "2026-03-29T23:31:10.822368Z",
      "apogee_km": 35791.93676538059,
      "perigee_km": 35780.746312776326,
      "latitude_deg": 0.023809628065074383,
      "longitude_deg": 45.981592778437225,
      "height_km": 35791.384023330174,
      "semi_major_axis_km": 42164.47853907846,
      "eccentricity": 0.0001327,
      "inclination_deg": 0.0222,
      "raan_deg": 99.1074,
      "arg_perigee_deg": 299.7503,
      "mean_anomaly_deg": 187.277,
      "mean_motion_rev_day": 1.00272689
    },
    {
      "epoch": "2026-03-29T23:31:10.823232Z",
      "apogee_km": 35791.93760867017,
      "perigee_km": 35780.745469486756,
      "latitude_deg": 0.02380962802778086,
      "longitude_deg": 45.981588865269295,
      "height_km": 35791.38486058225,
      "semi_major_axis_km": 42164.47853907846,
      "eccentricity": 0.00013272,
      "inclination_deg": 0.0222,
      "raan_deg": 99.1074,
      "arg_perigee_deg": 299.7503,
      "mean_anomaly_deg": 187.277,
      "mean_motion_rev_day": 1.00272689
    }
  ]
}